CCSDS_OMM_VERS = 2.0
CREATION_DATE  = 
ORIGINATOR     = 

OBJECT_NAME    = STARLINK-36596
OBJECT_ID      = 2026-022Y
CENTER_NAME    = EARTH
REF_FRAME      = TEME
TIME_SYSTEM    = UTC
MEAN_ELEMENT_THEORY = SGP/SGP4

EPOCH          = 2026-03-01T19:41:35.930400
MEAN_MOTION    = 15.75295472
ECCENTRICITY   = .00014412
INCLINATION    = 97.2834
RA_OF_ASC_NODE = 94.4608
ARG_OF_PERICENTER = 83.2320
MEAN_ANOMALY   = 276.9109

EPHEMERIS_TYPE = 0
CLASSIFICATION_TYPE = U
NORAD_CAT_ID   = 67670
ELEMENT_SET_NO = 999
REV_AT_EPOCH   = 431
BSTAR          = .19378429E-2
MEAN_MOTION_DOT = .300694E-2
MEAN_MOTION_DDOT = 0

CCSDS_OMM_VERS = 2.0
CREATION_DATE  = 
ORIGINATOR     = 

OBJECT_NAME    = STARLINK-36297
OBJECT_ID      = 2026-022Z
CENTER_NAME    = EARTH
REF_FRAME      = TEME
TIME_SYSTEM    = UTC
MEAN_ELEMENT_THEORY = SGP/SGP4

EPOCH          = 2026-03-01T19:38:33.165024
MEAN_MOTION    = 15.75254774
ECCENTRICITY   = .0001957
INCLINATION    = 97.2832
RA_OF_ASC_NODE = 94.4634
ARG_OF_PERICENTER = 72.7650
MEAN_ANOMALY   = 287.3830

EPHEMERIS_TYPE = 0
CLASSIFICATION_TYPE = U
NORAD_CAT_ID   = 67671
ELEMENT_SET_NO = 999
REV_AT_EPOCH   = 431
BSTAR          = .92518668E-3
MEAN_MOTION_DOT = .140559E-2
MEAN_MOTION_DDOT = 0

CCSDS_OMM_VERS = 2.0
CREATION_DATE  = 
ORIGINATOR     = 

OBJECT_NAME    = STARLINK-36616
OBJECT_ID      = 2026-022AA
CENTER_NAME    = EARTH
REF_FRAME      = TEME
TIME_SYSTEM    = UTC
MEAN_ELEMENT_THEORY = SGP/SGP4

EPOCH          = 2026-03-01T21:12:03.753792
MEAN_MOTION    = 15.75226049
ECCENTRICITY   = .0001524
INCLINATION    = 97.2835
RA_OF_ASC_NODE = 94.5283
ARG_OF_PERICENTER = 101.7464
MEAN_ANOMALY   = 258.3972

EPHEMERIS_TYPE = 0
CLASSIFICATION_TYPE = U
NORAD_CAT_ID   = 67672
ELEMENT_SET_NO = 999
REV_AT_EPOCH   = 432
BSTAR          = .63149278E-3
MEAN_MOTION_DOT = .95268E-3
MEAN_MOTION_DDOT = 0

CCSDS_OMM_VERS = 2.0
CREATION_DATE  = 
ORIGINATOR     = 

OBJECT_NAME    = COSMOS 2600
OBJECT_ID      = 2026-023A
CENTER_NAME    = EARTH
REF_FRAME      = TEME
TIME_SYSTEM    = UTC
MEAN_ELEMENT_THEORY = SGP/SGP4

EPOCH          = 2026-02-28T07:05:07.619712
MEAN_MOTION    = 15.83528492
ECCENTRICITY   = .00032481
INCLINATION    = 96.6452
RA_OF_ASC_NODE = 135.2352
ARG_OF_PERICENTER = 47.0444
MEAN_ANOMALY   = 313.1099

EPHEMERIS_TYPE = 0
CLASSIFICATION_TYPE = U
NORAD_CAT_ID   = 67674
ELEMENT_SET_NO = 999
REV_AT_EPOCH   = 356
BSTAR          = .32745834E-3
MEAN_MOTION_DOT = .71571E-3
MEAN_MOTION_DDOT = 0

CCSDS_OMM_VERS = 2.0
CREATION_DATE  = 
ORIGINATOR     = 

OBJECT_NAME    = 2026-023B
OBJECT_ID      = 2026-023B
CENTER_NAME    = EARTH
REF_FRAME      = TEME
TIME_SYSTEM    = UTC
MEAN_ELEMENT_THEORY = SGP/SGP4

EPOCH          = 2026-03-01T23:12:06.755040
MEAN_MOTION    = 15.22775707
ECCENTRICITY   = .00190154
INCLINATION    = 96.6376
RA_OF_ASC_NODE = 134.8096
ARG_OF_PERICENTER = 158.2328
MEAN_ANOMALY   = 201.9723

EPHEMERIS_TYPE = 0
CLASSIFICATION_TYPE = U
NORAD_CAT_ID   = 67675
ELEMENT_SET_NO = 999
REV_AT_EPOCH   = 368
BSTAR          = .59627237E-3
MEAN_MOTION_DOT = .13951E-3
MEAN_MOTION_DDOT = 0

CCSDS_OMM_VERS = 2.0
CREATION_DATE  = 
ORIGINATOR     = 

OBJECT_NAME    = 2026-023C
OBJECT_ID      = 2026-023C
CENTER_NAME    = EARTH
REF_FRAME      = TEME
TIME_SYSTEM    = UTC
MEAN_ELEMENT_THEORY = SGP/SGP4

EPOCH          = 2026-03-01T23:10:27.066720
MEAN_MOTION    = 15.22876686
ECCENTRICITY   = .00200883
INCLINATION    = 96.6412
RA_OF_ASC_NODE = 134.8304
ARG_OF_PERICENTER = 148.5738
MEAN_ANOMALY   = 211.6706

EPHEMERIS_TYPE = 0
CLASSIFICATION_TYPE = U
NORAD_CAT_ID   = 67676
ELEMENT_SET_NO = 999
REV_AT_EPOCH   = 384
BSTAR          = .5483049E-3
MEAN_MOTION_DOT = .12868E-3
MEAN_MOTION_DDOT = 0

CCSDS_OMM_VERS = 2.0
CREATION_DATE  = 
ORIGINATOR     = 

OBJECT_NAME    = 2026-023D
OBJECT_ID      = 2026-023D
CENTER_NAME    = EARTH
REF_FRAME      = TEME
TIME_SYSTEM    = UTC
MEAN_ELEMENT_THEORY = SGP/SGP4

EPOCH          = 2026-03-01T23:13:36.126336
MEAN_MOTION    = 15.22696490
ECCENTRICITY   = .00203016
INCLINATION    = 96.6443
RA_OF_ASC_NODE = 134.8181
ARG_OF_PERICENTER = 153.4538
MEAN_ANOMALY   = 206.7745

EPHEMERIS_TYPE = 0
CLASSIFICATION_TYPE = U
NORAD_CAT_ID   = 67677
ELEMENT_SET_NO = 999
REV_AT_EPOCH   = 367
BSTAR          = .54602983E-3
MEAN_MOTION_DOT = .12748E-3
MEAN_MOTION_DDOT = 0

CCSDS_OMM_VERS = 2.0
CREATION_DATE  = 
ORIGINATOR     = 

OBJECT_NAME    = 2026-023E
OBJECT_ID      = 2026-023E
CENTER_NAME    = EARTH
REF_FRAME      = TEME
TIME_SYSTEM    = UTC
MEAN_ELEMENT_THEORY = SGP/SGP4

EPOCH          = 2026-03-01T23:11:02.730048
MEAN_MOTION    = 15.22853246
ECCENTRICITY   = .00200736
INCLINATION    = 96.6336
RA_OF_ASC_NODE = 134.8023
ARG_OF_PERICENTER = 152.9363
MEAN_ANOMALY   = 207.2927

EPHEMERIS_TYPE = 0
CLASSIFICATION_TYPE = U
NORAD_CAT_ID   = 67678
ELEMENT_SET_NO = 999
REV_AT_EPOCH   = 367
BSTAR          = .63085723E-3
MEAN_MOTION_DOT = .14808E-3
MEAN_MOTION_DDOT = 0

CCSDS_OMM_VERS = 2.0
CREATION_DATE  = 
ORIGINATOR     = 

OBJECT_NAME    = 2026-023F
OBJECT_ID      = 2026-023F
CENTER_NAME    = EARTH
REF_FRAME      = TEME
TIME_SYSTEM    = UTC
MEAN_ELEMENT_THEORY = SGP/SGP4

EPOCH          = 2026-03-01T05:47:03.992352
MEAN_MOTION    = 15.22985190
ECCENTRICITY   = .002193
INCLINATION    = 96.6345
RA_OF_ASC_NODE = 136.6632
ARG_OF_PERICENTER = 150.3501
MEAN_ANOMALY   = 209.8986

EPHEMERIS_TYPE = 0
CLASSIFICATION_TYPE = U
NORAD_CAT_ID   = 67679
ELEMENT_SET_NO = 999
REV_AT_EPOCH   = 355
BSTAR          = .5687E-3
MEAN_MOTION_DOT = .13407E-3
MEAN_MOTION_DDOT = 0

CCSDS_OMM_VERS = 2.0
CREATION_DATE  = 
ORIGINATOR     = 

OBJECT_NAME    = 2026-023G
OBJECT_ID      = 2026-023G
CENTER_NAME    = EARTH
REF_FRAME      = TEME
TIME_SYSTEM    = UTC
MEAN_ELEMENT_THEORY = SGP/SGP4

EPOCH          = 2026-03-01T21:34:06.290688
MEAN_MOTION    = 15.22962815
ECCENTRICITY   = .00235144
INCLINATION    = 96.6272
RA_OF_ASC_NODE = 137.2287
ARG_OF_PERICENTER = 144.7516
MEAN_ANOMALY   = 215.5284

EPHEMERIS_TYPE = 0
CLASSIFICATION_TYPE = U
NORAD_CAT_ID   = 67680
ELEMENT_SET_NO = 999
REV_AT_EPOCH   = 365
BSTAR          = .71756796E-3
MEAN_MOTION_DOT = .16946E-3
MEAN_MOTION_DDOT = 0

CCSDS_OMM_VERS = 2.0
CREATION_DATE  = 
ORIGINATOR     = 

OBJECT_NAME    = 2026-023H
OBJECT_ID      = 2026-023H
CENTER_NAME    = EARTH
REF_FRAME      = TEME
TIME_SYSTEM    = UTC
MEAN_ELEMENT_THEORY = SGP/SGP4

EPOCH          = 2026-03-01T23:08:44.172960
MEAN_MOTION    = 15.22909301
ECCENTRICITY   = .00235815
INCLINATION    = 96.6417
RA_OF_ASC_NODE = 137.3129
ARG_OF_PERICENTER = 143.8592
MEAN_ANOMALY   = 216.4246

EPHEMERIS_TYPE = 0
CLASSIFICATION_TYPE = U
NORAD_CAT_ID   = 67681
ELEMENT_SET_NO = 999
REV_AT_EPOCH   = 366
BSTAR          = .56309138E-3
MEAN_MOTION_DOT = .13258E-3
MEAN_MOTION_DDOT = 0

CCSDS_OMM_VERS = 2.0
CREATION_DATE  = 
ORIGINATOR     = 

OBJECT_NAME    = 2026-023J
OBJECT_ID      = 2026-023J
CENTER_NAME    = EARTH
REF_FRAME      = TEME
TIME_SYSTEM    = UTC
MEAN_ELEMENT_THEORY = SGP/SGP4

EPOCH          = 2026-03-01T10:30:25.066368
MEAN_MOTION    = 15.22990099
ECCENTRICITY   = .00237145
INCLINATION    = 96.6374
RA_OF_ASC_NODE = 136.8538
ARG_OF_PERICENTER = 142.5261
MEAN_ANOMALY   = 217.7637

EPHEMERIS_TYPE = 0
CLASSIFICATION_TYPE = U
NORAD_CAT_ID   = 67682
ELEMENT_SET_NO = 999
REV_AT_EPOCH   = 358
BSTAR          = .76675801E-3
MEAN_MOTION_DOT = .18131E-3
MEAN_MOTION_DDOT = 0

