STARLINK-36596          
1 67670U 26022Y   26060.82055475  .00300694  00000+0  19378-2 0  9999
2 67670  97.2834  94.4608 0001441  83.2320 276.9109 15.75295472  4319
STARLINK-36297          
1 67671U 26022Z   26060.81843941  .00140559  00000+0  92519-3 0  9993
2 67671  97.2832  94.4634 0001957  72.7650 287.3830 15.75254774  4315
STARLINK-36616          
1 67672U 26022AA  26060.88337678  .00095268  00000+0  63149-3 0  9999
2 67672  97.2835  94.5283 0001524 101.7464 258.3972 15.75226049  4326
COSMOS 2600             
1 67674U 26023A   26059.29522708  .00071571  00000+0  32746-3 0  9995
2 67674  96.6452 135.2352 0003248  47.0444 313.1099 15.83528492  3562
2026-023B               
1 67675U 26023B   26060.96674485  .00013951  00000+0  59627-3 0  9997
2 67675  96.6376 134.8096 0019015 158.2328 201.9723 15.22775707  3680
2026-023C               
1 67676U 26023C   26060.96559105  .00012868  00000+0  54830-3 0  9996
2 67676  96.6412 134.8304 0020088 148.5738 211.6706 15.22876686  3848
2026-023D               
1 67677U 26023D   26060.96777924  .00012748  00000+0  54603-3 0  9993
2 67677  96.6443 134.8181 0020301 153.4538 206.7745 15.22696490  3679
2026-023E               
1 67678U 26023E   26060.96600382  .00014808  00000+0  63086-3 0  9991
2 67678  96.6336 134.8023 0020073 152.9363 207.2927 15.22853246  3674
2026-023F               
1 67679U 26023F   26060.24101843  .00013407  00000+0  56870-3 0  9998
2 67679  96.6345 136.6632 0021930 150.3501 209.8986 15.22985190  3554
2026-023G               
1 67680U 26023G   26060.89868392  .00016946  00000+0  71757-3 0  9992
2 67680  96.6272 137.2287 0023514 144.7516 215.5284 15.22962815  3656
2026-023H               
1 67681U 26023H   26060.96440015  .00013258  00000+0  56309-3 0  9998
2 67681  96.6417 137.3129 0023581 143.8592 216.4246 15.22909301  3662
2026-023J               
1 67682U 26023J   26060.43779012  .00018131  00000+0  76676-3 0  9997
2 67682  96.6374 136.8538 0023714 142.5261 217.7637 15.22990099  3583
